HIMAWARI-8              
1 40267U 14060A   23273.55181069 -.00000287  00000+0  00000+0 0  9998
2 40267   0.0183 151.2461 0000979  66.0397 131.0738  1.00270707 32933
